[{"OBJECT_NAME":"LEMUR-2-GREENBERG","OBJECT_ID":"2017-042N","EPOCH":"2026-03-09T11:05:17.256192","MEAN_MOTION":15.27971352,"ECCENTRICITY":0.00091572,"INCLINATION":97.3781,"RA_OF_ASC_NODE":249.8007,"ARG_OF_PERICENTER":4.0119,"MEAN_ANOMALY":356.1192,"EPHEMERIS_TYPE":0,"CLASSIFICATION_TYPE":"U","NORAD_CAT_ID":42837,"ELEMENT_SET_NO":999,"REV_AT_EPOCH":47314,"BSTAR":0.00072539172,"MEAN_MOTION_DOT":0.00019778,"MEAN_MOTION_DDOT":0},{"OBJECT_NAME":"STARLINK-32711","OBJECT_ID":"2024-251D","EPOCH":"2026-03-09T22:16:24.437568","MEAN_MOTION":15.3021573,"ECCENTRICITY":0.00022104,"INCLINATION":53.1627,"RA_OF_ASC_NODE":334.2865,"ARG_OF_PERICENTER":41.1116,"MEAN_ANOMALY":319.0051,"EPHEMERIS_TYPE":0,"CLASSIFICATION_TYPE":"U","NORAD_CAT_ID":62435,"ELEMENT_SET_NO":999,"REV_AT_EPOCH":6798,"BSTAR":0.0010903295,"MEAN_MOTION_DOT":0.00032089,"MEAN_MOTION_DDOT":0}]
